NORAD_CAT_ID,OBJECT_NAME,OBJECT_TYPE,EPOCH,MEAN_MOTION,ECCENTRICITY,INCLINATION,RA_OF_ASC_NODE,ARG_OF_PERICENTER,MEAN_ANOMALY,BSTAR,MEAN_MOTION_DOT,MEAN_MOTION_DDOT,TLE_LINE0,TLE_LINE1,TLE_LINE2,SEMIMAJOR_AXIS,PERIOD,APOGEE,PERIGEE,DECAYED
55405.0,STARLINK-5623,PAYLOAD,2024-07-07 08:44:54,14.98334999,0.0003324,69.9997,163.341,269.3648,90.713,1.9415e-05,1.39e-06,0.0,0 STARLINK-5623,1 55405U 23014Q   24189.36452311  .00000139  00000-0  19415-4 0  9995,2 55405  69.9997 163.3410 0003324 269.3648  90.7130 14.98334999 80634,6950.177,96.107,574.353,569.732,0.0
55405.0,STARLINK-5623,PAYLOAD,2024-07-08 03:58:31,14.98330604,0.0003282,69.9998,161.3214,270.1299,89.9484,6.3624e-05,6.66e-06,0.0,0 STARLINK-5623,1 55405U 23014Q   24190.16564477  .00000666  00000-0  63624-4 0  9998,2 55405  69.9998 161.3214 0003282 270.1299  89.9484 14.98330604 79819,6950.191,96.107,574.337,569.775,0.0
55405.0,STARLINK-5623,PAYLOAD,2024-07-08 07:10:47,14.98330587,0.0003192,70.0,160.9851,269.5582,90.5211,7.7147e-05,8.28e-06,0.0,0 STARLINK-5623,1 55405U 23014Q   24190.29916432  .00000828  00000-0  77147-4 0  9999,2 55405  70.0000 160.9851 0003192 269.5582  90.5211 14.98330587 80778,6950.191,96.107,574.275,569.838,0.0
55405.0,STARLINK-5623,PAYLOAD,2024-07-08 21:36:00,14.98331961,0.0003097,70.0001,159.4701,267.258,92.8225,2.9599e-05,2.6e-06,0.0,0 STARLINK-5623,1 55405U 23014Q   24190.90000456  .00000260  00000-0  29599-4 0  9995,2 55405  70.0001 159.4701 0003097 267.2580  92.8225 14.98331961 80860,6950.187,96.107,574.204,569.899,0.0
55405.0,STARLINK-5623,PAYLOAD,2024-07-09 04:00:32,14.98332222,0.0003089,70.0001,158.7969,266.6919,93.3886,3.1529e-05,2.83e-06,0.0,0 STARLINK-5623,1 55405U 23014Q   24191.16704390  .00000283  00000-0  31529-4 0  9993,2 55405  70.0001 158.7969 0003089 266.6919  93.3886 14.98332222 79967,6950.186,96.107,574.198,569.904,0.0
55405.0,STARLINK-5623,PAYLOAD,2024-07-09 08:48:56,14.98332516,0.0003089,70.0001,158.292,266.5644,93.5161,3.2872e-05,2.99e-06,0.0,0 STARLINK-5623,1 55405U 23014Q   24191.36732340  .00000299  00000-0  32872-4 0  9990,2 55405  70.0001 158.2920 0003089 266.5644  93.5161 14.98332516 80936,6950.185,96.107,574.197,569.903,0.0
55405.0,STARLINK-5623,PAYLOAD,2024-07-09 15:13:29,14.98326591,0.0003095,70.0,157.6187,267.1864,92.8941,4.7281e-05,4.71e-06,0.0,0 STARLINK-5623,1 55405U 23014Q   24191.63436685  .00000471  00000-0  47281-4 0  9995,2 55405  70.0000 157.6187 0003095 267.1864  92.8941 14.98326591 80979,6950.203,96.107,574.22,569.917,0.0
55405.0,STARLINK-5623,PAYLOAD,2024-07-10 04:02:34,14.98325433,0.0003095,70.0,156.2721,266.8828,93.1976,-3.0466e-05,-4.56e-06,0.0,0 STARLINK-5623,1 55405U 23014Q   24192.16845035 -.00000456  00000-0 -30466-4 0  9999,2 55405  70.0000 156.2721 0003095 266.8828  93.1976 14.98325433 80116,6950.207,96.107,574.223,569.921,0.0
55405.0,STARLINK-5623,PAYLOAD,2024-07-10 07:14:50,14.98326842,0.0003063,70.0001,155.9356,266.688,93.3928,-1.2631e-05,-2.44e-06,0.0,0 STARLINK-5623,1 55405U 23014Q   24192.30196931 -.00000244  00000-0 -12631-4 0  9998,2 55405  70.0001 155.9356 0003063 266.6880  93.3928 14.98326842 81078,6950.203,96.107,574.197,569.939,0.0
55405.0,STARLINK-5623,PAYLOAD,2024-07-10 15:15:30,14.98330656,0.0003183,69.9999,155.0939,268.7588,91.3206,1.1748e-05,4.7e-07,0.0,0 STARLINK-5623,1 55405U 23014Q   24192.63576635  .00000047  00000-0  11748-4 0  9994,2 55405  69.9999 155.0939 0003183 268.7588  91.3206 14.98330656 80186,6950.191,96.107,574.268,569.844,0.0
55405.0,STARLINK-5623,PAYLOAD,2024-07-10 21:40:02,14.98331885,0.0003218,69.9997,154.4205,268.7533,91.3257,5.7559e-05,5.94e-06,0.0,0 STARLINK-5623,1 55405U 23014Q   24192.90280397  .00000594  00000-0  57559-4 0  9998,2 55405  69.9997 154.4205 0003218 268.7533  91.3257 14.98331885 81162,6950.187,96.107,574.289,569.815,0.0
55405.0,STARLINK-5623,PAYLOAD,2024-07-11 07:16:50,14.98338704,0.0003209,69.9997,153.4107,268.8125,91.2666,9.4977e-05,1.041e-05,0.0,0 STARLINK-5623,1 55405U 23014Q   24193.30335798  .00001041  00000-0  94977-4 0  9992,2 55405  69.9997 153.4107 0003209 268.8125  91.2666 14.98338704 81227,6950.166,96.106,574.261,569.801,0.0
55405.0,STARLINK-5623,PAYLOAD,2024-07-12 04:06:35,14.98328925,0.0003149,69.9998,151.2228,269.0276,91.0522,6.6275e-05,6.98e-06,0.0,0 STARLINK-5623,1 55405U 23014Q   24194.17124477  .00000698  00000-0  66275-4 0  9995,2 55405  69.9998 151.2228 0003149 269.0276  91.0522 14.98328925 80414,6950.196,96.107,574.25,569.873,0.0
55405.0,STARLINK-5623,PAYLOAD,2024-07-12 07:18:51,14.98330824,0.0003133,69.9999,150.8861,268.8602,91.2198,8.471e-05,9.18e-06,0.0,0 STARLINK-5623,1 55405U 23014Q   24194.30476312  .00000918  00000-0  84710-4 0  9997,2 55405  69.9999 150.8861 0003133 268.8602  91.2198 14.98330824 81374,6950.19,96.107,574.233,569.878,0.0
55405.0,STARLINK-5623,PAYLOAD,2024-07-12 21:44:03,14.9833994,0.0003022,70.0001,149.3714,269.9523,90.1289,5.3581e-05,5.47e-06,0.0,0 STARLINK-5623,1 55405U 23014Q   24194.90559697  .00000547  00000-0  53581-4 0  9991,2 55405  70.0001 149.3714 0003022 269.9523  90.1289 14.98339940 81469,6950.162,96.106,574.127,569.927,0.0
55405.0,STARLINK-5623,PAYLOAD,2024-07-13 04:08:35,14.98343797,0.0002932,70.0003,148.6994,264.7558,95.3267,9.8655e-05,1.085e-05,0.0,0 STARLINK-5623,1 55405U 23014Q   24195.17263149  .00001085  00000-0  98655-4 0  9994,2 55405  70.0003 148.6994 0002932 264.7558  95.3267 14.98343797 80561,6950.15,96.106,574.053,569.977,0.0
55405.0,STARLINK-5623,PAYLOAD,2024-07-13 07:20:51,14.98344492,0.0002928,70.0003,148.3628,264.8758,95.2067,0.00010411,1.15e-05,0.0,0 STARLINK-5623,1 55405U 23014Q   24195.30614986  .00001150  00000-0  10411-3 0  9994,2 55405  70.0003 148.3628 0002928 264.8758  95.2067 14.98344492 81527,6950.148,96.106,574.048,569.978,0.0
55405.0,STARLINK-5623,PAYLOAD,2024-07-13 21:46:04,14.98325687,0.0002371,70.0018,146.8481,253.3574,106.7325,7.9034e-05,8.5e-06,0.0,0 STARLINK-5623,1 55405U 23014Q   24195.90700051  .00000850  00000-0  79034-4 0  9992,2 55405  70.0018 146.8481 0002371 253.3574 106.7325 14.98325687 81614,6950.206,96.107,573.719,570.423,0.0
55405.0,STARLINK-5623,PAYLOAD,2024-07-14 04:10:37,14.98326382,0.0002717,70.001,146.1761,261.2222,98.8629,-1.7044e-07,-9.5e-07,0.0,0 STARLINK-5623,1 55405U 23014Q   24196.17404289 -.00000095  00000-0 -17044-6 0  9994,2 55405  70.0010 146.1761 0002717 261.2222  98.8629 14.98326382 80713,6950.204,96.107,573.957,570.181,0.0
55405.0,STARLINK-5623,PAYLOAD,2024-07-14 13:47:24,14.98380763,0.0003091,70.0009,145.164,276.4619,83.6188,-0.0009741,-0.00011712,0.0,0 STARLINK-5623,1 55405U 23014Q   24196.57458777 -.00011712  00000-0 -97410-3 0  9999,2 55405  70.0009 145.1640 0003091 276.4619  83.6188 14.98380763 81716,6950.036,96.104,574.049,569.753,0.0
55405.0,STARLINK-5623,PAYLOAD,2024-07-14 21:48:06,14.98331073,0.0002918,70.0002,144.3219,265.5574,94.5251,-0.00010318,-1.324e-05,0.0,0 STARLINK-5623,1 55405U 23014Q   24196.90840286 -.00001324  00000-0 -10318-3 0  9996,2 55405  70.0002 144.3219 0002918 265.5574  94.5251 14.98331073 81765,6950.19,96.107,574.083,570.027,0.0
55405.0,STARLINK-5623,PAYLOAD,2024-07-15 04:12:37,14.98333563,0.0002786,70.0006,143.6491,259.4209,100.6637,-5.8627e-05,-7.92e-06,0.0,0 STARLINK-5623,1 55405U 23014Q   24197.17543981 -.00000792  00000-0 -58627-4 0  9992,2 55405  70.0006 143.6491 0002786 259.4209 100.6637 14.98333563 80866,6950.182,96.107,573.983,570.111,0.0
55405.0,STARLINK-5623,PAYLOAD,2024-07-15 05:48:45,14.98334233,0.0002787,70.0007,143.4808,262.1968,97.8875,-4.1399e-05,-5.87e-06,0.0,0 STARLINK-5623,1 55405U 23014Q   24197.24219893 -.00000587  00000-0 -41399-4 0  9992,2 55405  70.0007 143.4808 0002787 262.1968  97.8875 14.98334233 81813,6950.18,96.107,573.982,570.108,0.0
55405.0,STARLINK-5623,PAYLOAD,2024-07-15 21:50:07,14.98324007,0.0002753,70.0006,141.7976,265.8889,94.1955,4.9498e-05,4.98e-06,0.0,0 STARLINK-5623,1 55405U 23014Q   24197.90980359  .00000498  00000-0  49498-4 0  9994,2 55405  70.0006 141.7976 0002753 265.8889  94.1955 14.98324007 81912,6950.211,96.107,573.99,570.163,0.0
55405.0,STARLINK-5623,PAYLOAD,2024-07-16 04:14:39,14.98327263,0.0002757,70.0006,141.1244,267.205,92.8794,8.1905e-05,8.84e-06,0.0,0 STARLINK-5623,1 55405U 23014Q   24198.17684180  .00000884  00000-0  81905-4 0  9995,2 55405  70.0006 141.1244 0002757 267.2050  92.8794 14.98327263 81018,6950.201,96.107,573.983,570.15,0.0
55405.0,STARLINK-5623,PAYLOAD,2024-07-16 05:50:47,14.9832907,0.0002747,70.0006,140.9561,267.3732,92.7113,0.00010091,1.111e-05,0.0,0 STARLINK-5623,1 55405U 23014Q   24198.24360033  .00001111  00000-0  10091-3 0  9992,2 55405  70.0006 140.9561 0002747 267.3732  92.7113 14.98329070 81960,6950.196,96.107,573.97,570.152,0.0
55405.0,STARLINK-5623,PAYLOAD,2024-07-16 21:52:07,14.98331508,0.0002785,70.0006,139.2733,268.1721,91.9119,9.0498e-05,9.87e-06,0.0,0 STARLINK-5623,1 55405U 23014Q   24198.91119910  .00000987  00000-0  90498-4 0  9992,2 55405  70.0006 139.2733 0002785 268.1721  91.9119 14.98331508 82069,6950.188,96.107,573.989,570.118,0.0
55405.0,STARLINK-5623,PAYLOAD,2024-07-17 04:16:39,14.98338375,0.0002943,70.0002,138.5987,269.3552,90.7269,0.00010907,1.209e-05,0.0,0 STARLINK-5623,1 55405U 23014Q   24199.17823363  .00001209  00000-0  10907-3 0  9999,2 55405  70.0002 138.5987 0002943 269.3552  90.7269 14.98338375 81161,6950.167,96.106,574.077,569.987,0.0
55405.0,STARLINK-5623,PAYLOAD,2024-07-17 13:53:28,14.98332049,0.0002629,70.0015,137.5878,274.0403,86.0456,1.8018e-05,1.22e-06,0.0,0 STARLINK-5623,1 55405U 23014Q   24199.57880031  .00000122  00000-0  18018-4 0  9993,2 55405  70.0015 137.5878 0002629 274.0403  86.0456 14.98332049 82161,6950.187,96.107,573.879,570.224,0.0
55405.0,STARLINK-5623,PAYLOAD,2024-07-17 20:18:00,14.98327442,0.0002338,70.0025,136.9153,269.125,90.9642,8.7297e-05,9.49e-06,0.0,0 STARLINK-5623,1 55405U 23014Q   24199.84584172  .00000949  00000-0  87297-4 0  9992,2 55405  70.0025 136.9153 0002338 269.1250  90.9642 14.98327442 81265,6950.201,96.107,573.691,570.441,0.0
